{
  "type": "FeatureCollection",
  "features": [
    {
      "type": "Feature",
      "properties": {
        "norad_id": 30572,
        "name": "FENGYUN 1C DEB",
        "group": "fengyun-1c-debris",
        "lat": -14.197352125803455,
        "lon": -151.0882938643609,
        "alt_km": 858.692324071364,
        "timestamp": "2025-12-27T22:26:48.880557+00:00",
        "meta_object_name": "FENGYUN 1C DEB",
        "meta_object_id": "1999-025ALN",
        "meta_epoch": "2025-12-27T01:19:47.792064",
        "meta_mean_motion": 14.08934354,
        "meta_eccentricity": 0.00211039,
        "meta_inclination": 98.7708,
        "meta_ra_of_asc_node": 30.294,
        "meta_arg_of_pericenter": 251.332,
        "meta_mean_anomaly": 162.7374,
        "meta_ephemeris_type": 0,
        "meta_classification_type": "U",
        "meta_norad_cat_id": 30572,
        "meta_element_set_no": 999,
        "meta_rev_at_epoch": 96963,
        "meta_bstar": 0.00021676372,
        "meta_mean_motion_dot": 3.33e-06,
        "meta_mean_motion_ddot": 0,
        "tle_line1": "1 30572U 99025ALN 25361.05541426  .00000333  00000+0  21676-3 0  9999",
        "tle_line2": "2 30572  98.7708  30.2940 0021103 251.3320 162.7374 14.08934354969633"
      },
      "geometry": {
        "type": "Point",
        "coordinates": [
          -151.0882938643609,
          -14.197352125803455
        ]
      }
    },
    {
      "type": "Feature",
      "properties": {
        "norad_id": 30573,
        "name": "FENGYUN 1C DEB",
        "group": "fengyun-1c-debris",
        "lat": 35.00960401538714,
        "lon": 33.618488927216724,
        "alt_km": 905.4557304023938,
        "timestamp": "2025-12-27T22:26:48.880567+00:00",
        "meta_object_name": "FENGYUN 1C DEB",
        "meta_object_id": "1999-025ALP",
        "meta_epoch": "2025-12-27T02:13:04.104768",
        "meta_mean_motion": 14.13938385,
        "meta_eccentricity": 0.00890324,
        "meta_inclination": 99.2261,
        "meta_ra_of_asc_node": 39.2861,
        "meta_arg_of_pericenter": 233.4508,
        "meta_mean_anomaly": 193.8528,
        "meta_ephemeris_type": 0,
        "meta_classification_type": "U",
        "meta_norad_cat_id": 30573,
        "meta_element_set_no": 999,
        "meta_rev_at_epoch": 96400,
        "meta_bstar": 0.0020710757,
        "meta_mean_motion_dot": 4.036e-05,
        "meta_mean_motion_ddot": 0,
        "tle_line1": "1 30573U 99025ALP 25361.09240862  .00004036  00000+0  20711-2 0  9996",
        "tle_line2": "2 30573  99.2261  39.2861 0089032 233.4508 193.8528 14.13938385964005"
      },
      "geometry": {
        "type": "Point",
        "coordinates": [
          33.618488927216724,
          35.00960401538714
        ]
      }
    },
    {
      "type": "Feature",
      "properties": {
        "norad_id": 30574,
        "name": "FENGYUN 1C DEB",
        "group": "fengyun-1c-debris",
        "lat": 36.52840496924977,
        "lon": -7.805779475098333,
        "alt_km": 1125.5444627550723,
        "timestamp": "2025-12-27T22:26:48.880576+00:00",
        "meta_object_name": "FENGYUN 1C DEB",
        "meta_object_id": "1999-025ALQ",
        "meta_epoch": "2025-12-25T10:28:43.135104",
        "meta_mean_motion": 13.77586034,
        "meta_eccentricity": 0.0220298,
        "meta_inclination": 99.3007,
        "meta_ra_of_asc_node": 162.7748,
        "meta_arg_of_pericenter": 313.926,
        "meta_mean_anomaly": 44.3892,
        "meta_ephemeris_type": 0,
        "meta_classification_type": "U",
        "meta_norad_cat_id": 30574,
        "meta_element_set_no": 999,
        "meta_rev_at_epoch": 93943,
        "meta_bstar": 0.0023552,
        "meta_mean_motion_dot": 2.765e-05,
        "meta_mean_motion_ddot": 0,
        "tle_line1": "1 30574U 99025ALQ 25359.43661036  .00002765  00000+0  23552-2 0  9995",
        "tle_line2": "2 30574  99.3007 162.7748 0220298 313.9260  44.3892 13.77586034939433"
      },
      "geometry": {
        "type": "Point",
        "coordinates": [
          -7.805779475098333,
          36.52840496924977
        ]
      }
    },
    {
      "type": "Feature",
      "properties": {
        "norad_id": 30575,
        "name": "FENGYUN 1C DEB",
        "group": "fengyun-1c-debris",
        "lat": 78.52606810878322,
        "lon": -33.356362047611235,
        "alt_km": 753.9866320231613,
        "timestamp": "2025-12-27T22:26:48.880586+00:00",
        "meta_object_name": "FENGYUN 1C DEB",
        "meta_object_id": "1999-025ALR",
        "meta_epoch": "2025-12-27T05:27:06.116832",
        "meta_mean_motion": 14.40155329,
        "meta_eccentricity": 0.0054736,
        "meta_inclination": 99.1686,
        "meta_ra_of_asc_node": 93.1658,
        "meta_arg_of_pericenter": 194.2655,
        "meta_mean_anomaly": 193.9768,
        "meta_ephemeris_type": 0,
        "meta_classification_type": "U",
        "meta_norad_cat_id": 30575,
        "meta_element_set_no": 999,
        "meta_rev_at_epoch": 98426,
        "meta_bstar": 0.0012029,
        "meta_mean_motion_dot": 3.82e-05,
        "meta_mean_motion_ddot": 0,
        "tle_line1": "1 30575U 99025ALR 25361.22715413  .00003820  00000+0  12029-2 0  9995",
        "tle_line2": "2 30575  99.1686  93.1658 0054736 194.2655 193.9768 14.40155329984266"
      },
      "geometry": {
        "type": "Point",
        "coordinates": [
          -33.356362047611235,
          78.52606810878322
        ]
      }
    },
    {
      "type": "Feature",
      "properties": {
        "norad_id": 30577,
        "name": "FENGYUN 1C DEB",
        "group": "fengyun-1c-debris",
        "lat": 7.068097369439863,
        "lon": 34.41327064347075,
        "alt_km": 870.4911878299745,
        "timestamp": "2025-12-27T22:26:48.880596+00:00",
        "meta_object_name": "FENGYUN 1C DEB",
        "meta_object_id": "1999-025ALT",
        "meta_epoch": "2025-12-26T09:03:05.175072",
        "meta_mean_motion": 14.11167923,
        "meta_eccentricity": 0.0028972,
        "meta_inclination": 98.7693,
        "meta_ra_of_asc_node": 33.9885,
        "meta_arg_of_pericenter": 242.5575,
        "meta_mean_anomaly": 133.1652,
        "meta_ephemeris_type": 0,
        "meta_classification_type": "U",
        "meta_norad_cat_id": 30577,
        "meta_element_set_no": 999,
        "meta_rev_at_epoch": 96977,
        "meta_bstar": 0.0004994,
        "meta_mean_motion_dot": 8.6e-06,
        "meta_mean_motion_ddot": 0,
        "tle_line1": "1 30577U 99025ALT 25360.37714323  .00000860  00000+0  49940-3 0  9995",
        "tle_line2": "2 30577  98.7693  33.9885 0028972 242.5575 133.1652 14.11167923969774"
      },
      "geometry": {
        "type": "Point",
        "coordinates": [
          34.41327064347075,
          7.068097369439863
        ]
      }
    },
    {
      "type": "Feature",
      "properties": {
        "norad_id": 30579,
        "name": "FENGYUN 1C DEB",
        "group": "fengyun-1c-debris",
        "lat": -68.57758641837455,
        "lon": -177.1002523275657,
        "alt_km": 921.2442858435425,
        "timestamp": "2025-12-27T22:26:48.880606+00:00",
        "meta_object_name": "FENGYUN 1C DEB",
        "meta_object_id": "1999-025ALV",
        "meta_epoch": "2025-12-26T20:27:06.739776",
        "meta_mean_motion": 14.05264577,
        "meta_eccentricity": 0.00535597,
        "meta_inclination": 98.8056,
        "meta_ra_of_asc_node": 25.1186,
        "meta_arg_of_pericenter": 64.5612,
        "meta_mean_anomaly": 109.4347,
        "meta_ephemeris_type": 0,
        "meta_classification_type": "U",
        "meta_norad_cat_id": 30579,
        "meta_element_set_no": 999,
        "meta_rev_at_epoch": 96655,
        "meta_bstar": 0.00020618202,
        "meta_mean_motion_dot": 2.95e-06,
        "meta_mean_motion_ddot": 0,
        "tle_line1": "1 30579U 99025ALV 25360.85216134  .00000295  00000+0  20618-3 0  9990",
        "tle_line2": "2 30579  98.8056  25.1186 0053559  64.5612 109.4347 14.05264577966556"
      },
      "geometry": {
        "type": "Point",
        "coordinates": [
          -177.1002523275657,
          -68.57758641837455
        ]
      }
    },
    {
      "type": "Feature",
      "properties": {
        "norad_id": 30594,
        "name": "FENGYUN 1C DEB",
        "group": "fengyun-1c-debris",
        "lat": 70.38034847847071,
        "lon": 65.45862792138337,
        "alt_km": 962.2700239498718,
        "timestamp": "2025-12-27T22:26:48.880616+00:00",
        "meta_object_name": "FENGYUN 1C DEB",
        "meta_object_id": "1999-025ALZ",
        "meta_epoch": "2025-12-26T08:39:21.441312",
        "meta_mean_motion": 14.17353474,
        "meta_eccentricity": 0.0193013,
        "meta_inclination": 99.1504,
        "meta_ra_of_asc_node": 216.9554,
        "meta_arg_of_pericenter": 277.6525,
        "meta_mean_anomaly": 80.2768,
        "meta_ephemeris_type": 0,
        "meta_classification_type": "U",
        "meta_norad_cat_id": 30594,
        "meta_element_set_no": 999,
        "meta_rev_at_epoch": 97772,
        "meta_bstar": 0.00021,
        "meta_mean_motion_dot": 4.59e-06,
        "meta_mean_motion_ddot": 0,
        "tle_line1": "1 30594U 99025ALZ 25360.36066483  .00000459  00000+0  21000-3 0  9991",
        "tle_line2": "2 30594  99.1504 216.9554 0193013 277.6525  80.2768 14.17353474977726"
      },
      "geometry": {
        "type": "Point",
        "coordinates": [
          65.45862792138337,
          70.38034847847071
        ]
      }
    }
  ]
}